{
  "type": "FeatureCollection",
  "features": [
    {
      "type": "Feature",
      "properties": {
        "norad_id": 33901,
        "name": "COSMOS 2251 DEB",
        "group": "cosmos-2251-debris",
        "lat": 60.146153019011,
        "lon": 171.96105592067008,
        "alt_km": 491.6468369423055,
        "timestamp": "2025-12-25T09:48:52.682062+00:00",
        "meta_object_name": "COSMOS 2251 DEB",
        "meta_object_id": "1993-036DE",
        "meta_epoch": "2025-12-25T02:58:40.086048",
        "meta_mean_motion": 15.1720149,
        "meta_eccentricity": 0.0029682,
        "meta_inclination": 73.7737,
        "meta_ra_of_asc_node": 23.056,
        "meta_arg_of_pericenter": 152.953,
        "meta_mean_anomaly": 207.3219,
        "meta_ephemeris_type": 0,
        "meta_classification_type": "U",
        "meta_norad_cat_id": 33901,
        "meta_element_set_no": 999,
        "meta_rev_at_epoch": 89701,
        "meta_bstar": 0.0027237,
        "meta_mean_motion_dot": 0.00055137,
        "meta_mean_motion_ddot": 0,
        "tle_line1": "1 33901U 93036DE  25359.12407507  .00055137  00000+0  27237-2 0  9990",
        "tle_line2": "2 33901  73.7737  23.0560 0029682 152.9530 207.3219 15.17201490897019"
      },
      "geometry": {
        "type": "Point",
        "coordinates": [
          171.96105592067008,
          60.146153019011
        ]
      }
    },
    {
      "type": "Feature",
      "properties": {
        "norad_id": 33905,
        "name": "COSMOS 2251 DEB",
        "group": "cosmos-2251-debris",
        "lat": 73.7272591271571,
        "lon": 31.182997760927595,
        "alt_km": 764.3762272738222,
        "timestamp": "2025-12-25T09:48:52.682072+00:00",
        "meta_object_name": "COSMOS 2251 DEB",
        "meta_object_id": "1993-036DJ",
        "meta_epoch": "2025-12-24T20:08:51.759744",
        "meta_mean_motion": 14.35424686,
        "meta_eccentricity": 0.00581497,
        "meta_inclination": 73.8868,
        "meta_ra_of_asc_node": 294.2481,
        "meta_arg_of_pericenter": 181.1649,
        "meta_mean_anomaly": 210.2208,
        "meta_ephemeris_type": 0,
        "meta_classification_type": "U",
        "meta_norad_cat_id": 33905,
        "meta_element_set_no": 999,
        "meta_rev_at_epoch": 87861,
        "meta_bstar": 0.00052334334,
        "meta_mean_motion_dot": 1.505e-05,
        "meta_mean_motion_ddot": 0,
        "tle_line1": "1 33905U 93036DJ  25358.83948796  .00001505  00000+0  52334-3 0  9998",
        "tle_line2": "2 33905  73.8868 294.2481 0058149 181.1649 210.2208 14.35424686878617"
      },
      "geometry": {
        "type": "Point",
        "coordinates": [
          31.182997760927595,
          73.7272591271571
        ]
      }
    },
    {
      "type": "Feature",
      "properties": {
        "norad_id": 33906,
        "name": "COSMOS 2251 DEB",
        "group": "cosmos-2251-debris",
        "lat": -64.46585380706017,
        "lon": 154.22679124655593,
        "alt_km": 702.0002002515666,
        "timestamp": "2025-12-25T09:48:52.682082+00:00",
        "meta_object_name": "COSMOS 2251 DEB",
        "meta_object_id": "1993-036DK",
        "meta_epoch": "2025-12-24T21:26:54.057408",
        "meta_mean_motion": 14.57287474,
        "meta_eccentricity": 0.0036943,
        "meta_inclination": 74.0305,
        "meta_ra_of_asc_node": 298.3757,
        "meta_arg_of_pericenter": 326.0719,
        "meta_mean_anomaly": 102.0248,
        "meta_ephemeris_type": 0,
        "meta_classification_type": "U",
        "meta_norad_cat_id": 33906,
        "meta_element_set_no": 999,
        "meta_rev_at_epoch": 88185,
        "meta_bstar": 0.0020044,
        "meta_mean_motion_dot": 9.136e-05,
        "meta_mean_motion_ddot": 0,
        "tle_line1": "1 33906U 93036DK  25358.89368122  .00009136  00000+0  20044-2 0  9994",
        "tle_line2": "2 33906  74.0305 298.3757 0036943 326.0719 102.0248 14.57287474881852"
      },
      "geometry": {
        "type": "Point",
        "coordinates": [
          154.22679124655593,
          -64.46585380706017
        ]
      }
    },
    {
      "type": "Feature",
      "properties": {
        "norad_id": 33907,
        "name": "COSMOS 2251 DEB",
        "group": "cosmos-2251-debris",
        "lat": 74.05921286467864,
        "lon": 99.84428644725222,
        "alt_km": 710.8369869422222,
        "timestamp": "2025-12-25T09:48:52.682092+00:00",
        "meta_object_name": "COSMOS 2251 DEB",
        "meta_object_id": "1993-036DL",
        "meta_epoch": "2025-12-25T02:58:26.306976",
        "meta_mean_motion": 14.30619717,
        "meta_eccentricity": 0.0111944,
        "meta_inclination": 74.0704,
        "meta_ra_of_asc_node": 11.1567,
        "meta_arg_of_pericenter": 62.8973,
        "meta_mean_anomaly": 358.9273,
        "meta_ephemeris_type": 0,
        "meta_classification_type": "U",
        "meta_norad_cat_id": 33907,
        "meta_element_set_no": 999,
        "meta_rev_at_epoch": 86757,
        "meta_bstar": 0.0020136,
        "meta_mean_motion_dot": 5.61e-05,
        "meta_mean_motion_ddot": 0,
        "tle_line1": "1 33907U 93036DL  25359.12391559  .00005610  00000+0  20136-2 0  9997",
        "tle_line2": "2 33907  74.0704  11.1567 0111944  62.8973 358.9273 14.30619717867571"
      },
      "geometry": {
        "type": "Point",
        "coordinates": [
          99.84428644725222,
          74.05921286467864
        ]
      }
    },
    {
      "type": "Feature",
      "properties": {
        "norad_id": 33908,
        "name": "COSMOS 2251 DEB",
        "group": "cosmos-2251-debris",
        "lat": 36.887776264261305,
        "lon": -9.286941928785547,
        "alt_km": 789.7488336000788,
        "timestamp": "2025-12-25T09:48:52.682102+00:00",
        "meta_object_name": "COSMOS 2251 DEB",
        "meta_object_id": "1993-036DM",
        "meta_epoch": "2025-12-24T22:53:40.974144",
        "meta_mean_motion": 14.07439285,
        "meta_eccentricity": 0.0222261,
        "meta_inclination": 73.8369,
        "meta_ra_of_asc_node": 184.0913,
        "meta_arg_of_pericenter": 205.3591,
        "meta_mean_anomaly": 153.6509,
        "meta_ephemeris_type": 0,
        "meta_classification_type": "U",
        "meta_norad_cat_id": 33908,
        "meta_element_set_no": 999,
        "meta_rev_at_epoch": 85645,
        "meta_bstar": 0.002615,
        "meta_mean_motion_dot": 5.491e-05,
        "meta_mean_motion_ddot": 0,
        "tle_line1": "1 33908U 93036DM  25358.95394646  .00005491  00000+0  26150-2 0  9997",
        "tle_line2": "2 33908  73.8369 184.0913 0222261 205.3591 153.6509 14.07439285856457"
      },
      "geometry": {
        "type": "Point",
        "coordinates": [
          -9.286941928785547,
          36.887776264261305
        ]
      }
    },
    {
      "type": "Feature",
      "properties": {
        "norad_id": 33911,
        "name": "COSMOS 2251 DEB",
        "group": "cosmos-2251-debris",
        "lat": 62.02046625657696,
        "lon": -75.29445820801308,
        "alt_km": 631.1290264484196,
        "timestamp": "2025-12-25T09:48:52.682111+00:00",
        "meta_object_name": "COSMOS 2251 DEB",
        "meta_object_id": "1993-036DQ",
        "meta_epoch": "2025-12-24T19:13:55.354368",
        "meta_mean_motion": 14.7515635,
        "meta_eccentricity": 0.00140608,
        "meta_inclination": 74.0905,
        "meta_ra_of_asc_node": 138.3615,
        "meta_arg_of_pericenter": 70.3725,
        "meta_mean_anomaly": 57.3788,
        "meta_ephemeris_type": 0,
        "meta_classification_type": "U",
        "meta_norad_cat_id": 33911,
        "meta_element_set_no": 999,
        "meta_rev_at_epoch": 88822,
        "meta_bstar": 0.0022723023,
        "meta_mean_motion_dot": 0.00015371,
        "meta_mean_motion_ddot": 0,
        "tle_line1": "1 33911U 93036DQ  25358.80133512  .00015371  00000+0  22723-2 0  9998",
        "tle_line2": "2 33911  74.0905 138.3615 0014060  70.3725  57.3788 14.75156350888229"
      },
      "geometry": {
        "type": "Point",
        "coordinates": [
          -75.29445820801308,
          62.02046625657696
        ]
      }
    },
    {
      "type": "Feature",
      "properties": {
        "norad_id": 33912,
        "name": "COSMOS 2251 DEB",
        "group": "cosmos-2251-debris",
        "lat": 27.290964805739705,
        "lon": 174.35328755147918,
        "alt_km": 724.2324766522106,
        "timestamp": "2025-12-25T09:48:52.682122+00:00",
        "meta_object_name": "COSMOS 2251 DEB",
        "meta_object_id": "1993-036DR",
        "meta_epoch": "2025-12-24T22:49:31.483776",
        "meta_mean_motion": 14.51963697,
        "meta_eccentricity": 0.0011307,
        "meta_inclination": 74.033,
        "meta_ra_of_asc_node": 166.7209,
        "meta_arg_of_pericenter": 246.0199,
        "meta_mean_anomaly": 270.0667,
        "meta_ephemeris_type": 0,
        "meta_classification_type": "U",
        "meta_norad_cat_id": 33912,
        "meta_element_set_no": 999,
        "meta_rev_at_epoch": 88610,
        "meta_bstar": 0.00087249,
        "meta_mean_motion_dot": 3.499e-05,
        "meta_mean_motion_ddot": 0,
        "tle_line1": "1 33912U 93036DR  25358.95105884  .00003499  00000+0  87249-3 0  9999",
        "tle_line2": "2 33912  74.0330 166.7209 0011307 246.0199 270.0667 14.51963697886103"
      },
      "geometry": {
        "type": "Point",
        "coordinates": [
          174.35328755147918,
          27.290964805739705
        ]
      }
    }
  ]
}